STARLINK-5153           
1 54088U 22136AP  25350.30051235  .00000878  00000+0  73225-4 0  9998
2 54088  53.2190 348.5755 0001324  97.8384 262.2758 15.08836244174390
STARLINK-5143           
1 54089U 22136AQ  25350.27839773  .00000858  00000+0  71956-4 0  9993
2 54089  53.2182 348.4372 0001329  87.6514 272.4630 15.08842754174398
STARLINK-5177           
1 54090U 22136AR  25350.28209103  .00001799  00000+0  13112-3 0  9998
2 54090  53.2184 348.4594 0001415  82.2123 277.9030 15.08838835174390
STARLINK-5221           
1 54091U 22136AS  25350.31885269  .00001588  00000+0  11785-3 0  9996
2 54091  53.2185 347.9854 0001259  88.4287 271.6849 15.08838465174400
STARLINK-5190           
1 54092U 22136AT  25350.02563941  .00033119  00000+0  47954-3 0  9997
2 54092  53.1825 221.7117 0005538  96.3349 263.8294 15.55593250176156
STARLINK-5213           
1 54093U 22136AU  25350.26734708  .00003016  00000+0  20749-3 0  9991
2 54093  53.2182 348.3703 0001371  87.2480 272.8669 15.08847669174391
STARLINK-5219           
1 54094U 22136AV  25350.33337963  .01435133  00000+0  14828-1 0  9991
2 54094  53.2209 343.8314 0001262  81.4605 294.6002 15.61355061  5805
STARLINK-5193           
1 54095U 22136AW  25350.32623322  .00006446  00000+0  42286-3 0  9999
2 54095  53.2192 348.0266 0001735  81.8549 278.2640 15.08827995174406
STARLINK-5188           
1 54096U 22136AX  25350.27103278 -.00000533  00000+0 -15407-4 0  9996
2 54096  53.2184 348.3929 0001281  88.3184 271.7955 15.08847630174393
STARLINK-5197           
1 54097U 22136AY  25350.21262543  .00000769  00000+0  66408-4 0  9998
2 54097  53.2186 323.7940 0001432  89.8265 270.2892 15.08841142174734
STARLINK-5217           
1 54098U 22136AZ  25350.32357588  .00001960  00000+0  14116-3 0  9997
2 54098  53.2187 348.7022 0001201  97.3018 262.8111 15.08841787174396
STARLINK-5198           
1 54099U 22136BA  25350.24892584  .00001934  00000+0  13959-3 0  9994
2 54099  53.2185 348.2564 0001237  97.5839 262.5293 15.08839789174390
STARLINK-5185           
1 54100U 22136BB  25350.26369662 -.00007184  00000+0 -43436-3 0  9993
2 54100  53.2189 348.3459 0001421 102.6647 257.4504 15.08786466174392
STARLINK-5204           
1 54101U 22136BC  25350.33040692  .00001090  00000+0  86537-4 0  9999
2 54101  53.2193 333.0949 0001410  91.0321 269.0833 15.08841222174612
STARLINK-5179           
1 54102U 22136BD  25350.29313411  .00001751  00000+0  12808-3 0  9990
2 54102  53.2183 348.5185 0001369  89.2311 270.8838 15.08840700174396
STARLINK-5200           
1 54103U 22136BE  25350.33176704  .00002304  00000+0  16285-3 0  9996
2 54103  53.2192 328.1134 0001311  89.0893 271.0250 15.08826965174685
