[{"OBJECT_NAME":"STARLINK-5153","OBJECT_ID":"2022-136AP","EPOCH":"2025-12-16T07:12:44.267040","MEAN_MOTION":15.08836244,"ECCENTRICITY":0.00013241,"INCLINATION":53.219,"RA_OF_ASC_NODE":348.5755,"ARG_OF_PERICENTER":97.8384,"MEAN_ANOMALY":262.2758,"EPHEMERIS_TYPE":0,"CLASSIFICATION_TYPE":"U","NORAD_CAT_ID":54088,"ELEMENT_SET_NO":999,"REV_AT_EPOCH":17439,"BSTAR":7.3224727e-5,"MEAN_MOTION_DOT":8.78e-6,"MEAN_MOTION_DDOT":0},{"OBJECT_NAME":"STARLINK-5143","OBJECT_ID":"2022-136AQ","EPOCH":"2025-12-16T06:40:53.563872","MEAN_MOTION":15.08842754,"ECCENTRICITY":0.00013296,"INCLINATION":53.2182,"RA_OF_ASC_NODE":348.4372,"ARG_OF_PERICENTER":87.6514,"MEAN_ANOMALY":272.463,"EPHEMERIS_TYPE":0,"CLASSIFICATION_TYPE":"U","NORAD_CAT_ID":54089,"ELEMENT_SET_NO":999,"REV_AT_EPOCH":17439,"BSTAR":7.1955921e-5,"MEAN_MOTION_DOT":8.58e-6,"MEAN_MOTION_DDOT":0},{"OBJECT_NAME":"STARLINK-5177","OBJECT_ID":"2022-136AR","EPOCH":"2025-12-16T06:46:12.664992","MEAN_MOTION":15.08838835,"ECCENTRICITY":0.00014158,"INCLINATION":53.2184,"RA_OF_ASC_NODE":348.4594,"ARG_OF_PERICENTER":82.2123,"MEAN_ANOMALY":277.903,"EPHEMERIS_TYPE":0,"CLASSIFICATION_TYPE":"U","NORAD_CAT_ID":54090,"ELEMENT_SET_NO":999,"REV_AT_EPOCH":17439,"BSTAR":0.00013111823,"MEAN_MOTION_DOT":1.799e-5,"MEAN_MOTION_DDOT":0},{"OBJECT_NAME":"STARLINK-5221","OBJECT_ID":"2022-136AS","EPOCH":"2025-12-16T07:39:08.872416","MEAN_MOTION":15.08838465,"ECCENTRICITY":0.00012594,"INCLINATION":53.2185,"RA_OF_ASC_NODE":347.9854,"ARG_OF_PERICENTER":88.4287,"MEAN_ANOMALY":271.6849,"EPHEMERIS_TYPE":0,"CLASSIFICATION_TYPE":"U","NORAD_CAT_ID":54091,"ELEMENT_SET_NO":999,"REV_AT_EPOCH":17440,"BSTAR":0.00011784687,"MEAN_MOTION_DOT":1.588e-5,"MEAN_MOTION_DDOT":0},{"OBJECT_NAME":"STARLINK-5190","OBJECT_ID":"2022-136AT","EPOCH":"2025-12-16T00:36:55.245024","MEAN_MOTION":15.5559325,"ECCENTRICITY":0.00055386,"INCLINATION":53.1825,"RA_OF_ASC_NODE":221.7117,"ARG_OF_PERICENTER":96.3349,"MEAN_ANOMALY":263.8294,"EPHEMERIS_TYPE":0,"CLASSIFICATION_TYPE":"U","NORAD_CAT_ID":54092,"ELEMENT_SET_NO":999,"REV_AT_EPOCH":17615,"BSTAR":0.00047954244,"MEAN_MOTION_DOT":0.00033119,"MEAN_MOTION_DDOT":0},{"OBJECT_NAME":"STARLINK-5213","OBJECT_ID":"2022-136AU","EPOCH":"2025-12-16T06:24:58.787712","MEAN_MOTION":15.08847669,"ECCENTRICITY":0.00013717,"INCLINATION":53.2182,"RA_OF_ASC_NODE":348.3703,"ARG_OF_PERICENTER":87.248,"MEAN_ANOMALY":272.8669,"EPHEMERIS_TYPE":0,"CLASSIFICATION_TYPE":"U","NORAD_CAT_ID":54093,"ELEMENT_SET_NO":999,"REV_AT_EPOCH":17439,"BSTAR":0.00020748538,"MEAN_MOTION_DOT":3.016e-5,"MEAN_MOTION_DDOT":0},{"OBJECT_NAME":"STARLINK-5219","OBJECT_ID":"2022-136AV","EPOCH":"2025-12-16T08:00:04.000032","MEAN_MOTION":15.61355061,"ECCENTRICITY":0.00012623,"INCLINATION":53.2209,"RA_OF_ASC_NODE":343.8314,"ARG_OF_PERICENTER":81.4605,"MEAN_ANOMALY":294.6002,"EPHEMERIS_TYPE":0,"CLASSIFICATION_TYPE":"U","NORAD_CAT_ID":54094,"ELEMENT_SET_NO":999,"REV_AT_EPOCH":580,"BSTAR":0.014828258,"MEAN_MOTION_DOT":0.01435133,"MEAN_MOTION_DDOT":0},{"OBJECT_NAME":"STARLINK-5193","OBJECT_ID":"2022-136AW","EPOCH":"2025-12-16T07:49:46.550208","MEAN_MOTION":15.08827995,"ECCENTRICITY":0.00017356,"INCLINATION":53.2192,"RA_OF_ASC_NODE":348.0266,"ARG_OF_PERICENTER":81.8549,"MEAN_ANOMALY":278.264,"EPHEMERIS_TYPE":0,"CLASSIFICATION_TYPE":"U","NORAD_CAT_ID":54095,"ELEMENT_SET_NO":999,"REV_AT_EPOCH":17440,"BSTAR":0.00042286112,"MEAN_MOTION_DOT":6.446e-5,"MEAN_MOTION_DDOT":0},{"OBJECT_NAME":"STARLINK-5188","OBJECT_ID":"2022-136AX","EPOCH":"2025-12-16T06:30:17.232192","MEAN_MOTION":15.0884763,"ECCENTRICITY":0.00012815,"INCLINATION":53.2184,"RA_OF_ASC_NODE":348.3929,"ARG_OF_PERICENTER":88.3184,"MEAN_ANOMALY":271.7955,"EPHEMERIS_TYPE":0,"CLASSIFICATION_TYPE":"U","NORAD_CAT_ID":54096,"ELEMENT_SET_NO":999,"REV_AT_EPOCH":17439,"BSTAR":-1.5406991e-5,"MEAN_MOTION_DOT":-5.33e-6,"MEAN_MOTION_DDOT":0},{"OBJECT_NAME":"STARLINK-5197","OBJECT_ID":"2022-136AY","EPOCH":"2025-12-16T05:06:10.837152","MEAN_MOTION":15.08841142,"ECCENTRICITY":0.00014325,"INCLINATION":53.2186,"RA_OF_ASC_NODE":323.794,"ARG_OF_PERICENTER":89.8265,"MEAN_ANOMALY":270.2892,"EPHEMERIS_TYPE":0,"CLASSIFICATION_TYPE":"U","NORAD_CAT_ID":54097,"ELEMENT_SET_NO":999,"REV_AT_EPOCH":17473,"BSTAR":6.6408453e-5,"MEAN_MOTION_DOT":7.69e-6,"MEAN_MOTION_DDOT":0},{"OBJECT_NAME":"STARLINK-5217","OBJECT_ID":"2022-136AZ","EPOCH":"2025-12-16T07:45:56.956032","MEAN_MOTION":15.08841787,"ECCENTRICITY":0.00012013,"INCLINATION":53.2187,"RA_OF_ASC_NODE":348.7022,"ARG_OF_PERICENTER":97.3018,"MEAN_ANOMALY":262.8111,"EPHEMERIS_TYPE":0,"CLASSIFICATION_TYPE":"U","NORAD_CAT_ID":54098,"ELEMENT_SET_NO":999,"REV_AT_EPOCH":17439,"BSTAR":0.00014115905,"MEAN_MOTION_DOT":1.96e-5,"MEAN_MOTION_DDOT":0},{"OBJECT_NAME":"STARLINK-5198","OBJECT_ID":"2022-136BA","EPOCH":"2025-12-16T05:58:27.192576","MEAN_MOTION":15.08839789,"ECCENTRICITY":0.0001237,"INCLINATION":53.2185,"RA_OF_ASC_NODE":348.2564,"ARG_OF_PERICENTER":97.5839,"MEAN_ANOMALY":262.5293,"EPHEMERIS_TYPE":0,"CLASSIFICATION_TYPE":"U","NORAD_CAT_ID":54099,"ELEMENT_SET_NO":999,"REV_AT_EPOCH":17439,"BSTAR":0.00013958857,"MEAN_MOTION_DOT":1.934e-5,"MEAN_MOTION_DDOT":0},{"OBJECT_NAME":"STARLINK-5185","OBJECT_ID":"2022-136BB","EPOCH":"2025-12-16T06:19:43.387968","MEAN_MOTION":15.08786466,"ECCENTRICITY":0.00014217,"INCLINATION":53.2189,"RA_OF_ASC_NODE":348.3459,"ARG_OF_PERICENTER":102.6647,"MEAN_ANOMALY":257.4504,"EPHEMERIS_TYPE":0,"CLASSIFICATION_TYPE":"U","NORAD_CAT_ID":54100,"ELEMENT_SET_NO":999,"REV_AT_EPOCH":17439,"BSTAR":-0.00043435848,"MEAN_MOTION_DOT":-7.184e-5,"MEAN_MOTION_DDOT":0},{"OBJECT_NAME":"STARLINK-5204","OBJECT_ID":"2022-136BC","EPOCH":"2025-12-16T07:55:47.157888","MEAN_MOTION":15.08841222,"ECCENTRICITY":0.00014108,"INCLINATION":53.2193,"RA_OF_ASC_NODE":333.0949,"ARG_OF_PERICENTER":91.0321,"MEAN_ANOMALY":269.0833,"EPHEMERIS_TYPE":0,"CLASSIFICATION_TYPE":"U","NORAD_CAT_ID":54101,"ELEMENT_SET_NO":999,"REV_AT_EPOCH":17461,"BSTAR":8.6536618e-5,"MEAN_MOTION_DOT":1.09e-5,"MEAN_MOTION_DDOT":0},{"OBJECT_NAME":"STARLINK-5179","OBJECT_ID":"2022-136BD","EPOCH":"2025-12-16T07:02:06.787104","MEAN_MOTION":15.088407,"ECCENTRICITY":0.00013693,"INCLINATION":53.2183,"RA_OF_ASC_NODE":348.5185,"ARG_OF_PERICENTER":89.2311,"MEAN_ANOMALY":270.8838,"EPHEMERIS_TYPE":0,"CLASSIFICATION_TYPE":"U","NORAD_CAT_ID":54102,"ELEMENT_SET_NO":999,"REV_AT_EPOCH":17439,"BSTAR":0.00012808228,"MEAN_MOTION_DOT":1.751e-5,"MEAN_MOTION_DDOT":0},{"OBJECT_NAME":"STARLINK-5200","OBJECT_ID":"2022-136BE","EPOCH":"2025-12-16T07:57:44.672256","MEAN_MOTION":15.08826965,"ECCENTRICITY":0.00013116,"INCLINATION":53.2192,"RA_OF_ASC_NODE":328.1134,"ARG_OF_PERICENTER":89.0893,"MEAN_ANOMALY":271.025,"EPHEMERIS_TYPE":0,"CLASSIFICATION_TYPE":"U","NORAD_CAT_ID":54103,"ELEMENT_SET_NO":999,"REV_AT_EPOCH":17468,"BSTAR":0.00016285312,"MEAN_MOTION_DOT":2.304e-5,"MEAN_MOTION_DDOT":0}]
